NORBI                   
1 46494U 20068J   26189.99290266  .00016479  00000+0  30143-3 0  9992
2 46494  97.8626 207.8938 0007717 162.9262 197.2249 15.49420205319586
SALSAT                  
1 46495U 20068K   26189.92478988  .00004831  00000+0  16857-3 0  9990
2 46495  97.8859 194.3174 0008548 216.5599 143.5058 15.30112926318689
ICEYE-X6                
1 46497U 20068M   26189.93843198  .00002581  00000+0  18839-3 0  9994
2 46497  98.0976 184.6513 0007749  27.9689 332.1951 15.04640193316509
NETSAT-4                
1 46504U 20068U   26189.83259637  .00012909  00000+0  27945-3 0  9994
2 46504  97.8611 199.8235 0004004 219.3798 140.7158 15.44603658319110
NETSAT-3                
1 46505U 20068V   26189.98491666  .00013306  00000+0  29931-3 0  9990
2 46505  97.8661 198.1779 0003177 241.5566 118.5361 15.43456567319046
NETSAT-1                
1 46506U 20068W   26189.45362568  .00007565  00000+0  22444-3 0  9993
2 46506  97.8754 191.6806 0002545 304.7328  55.3674 15.35138736318562
NETSAT-2                
1 46507U 20068X   26189.58253790  .00017118  00000+0  34129-3 0  9992
2 46507  97.8621 199.5288 0001448 248.0784 112.0310 15.46954649319047
TIANQI-6                
1 46810U 20076D   26189.93043752  .00002083  00000+0  13691-3 0  9998
2 46810  34.9994 275.0071 0010253 357.4643   2.6013 15.07330324311863
KSM1-C                  
1 46906U 20081B   26189.73869418  .00005676  00000+0  21204-3 0  9993
2 46906  36.8958 285.8566 0002049  19.1337 340.9489 15.27110864312463
KSM1-D                  
1 46907U 20081C   26189.70385524  .00004722  00000+0  18839-3 0  9993
2 46907  36.8975 295.4994 0002606  65.5163 294.5857 15.25042507312386
KSM1-A                  
1 46912U 20081H   26189.68767707  .00005158  00000+0  19776-3 0  9998
2 46912  36.8969 288.7292 0002118 141.4241 218.6660 15.26309920312464
R2                      
1 46913U 20081J   26189.32406509  .00005026  00000+0  19595-3 0  9993
2 46913  36.8977 291.0670 0006977 104.3696 255.7828 15.25754250315213
KSM1-B                  
1 46914U 20081K   26189.71033135  .00004805  00000+0  19286-3 0  9999
2 46914  36.9025 296.1178 0004110  99.0215 261.0999 15.24827327315474
GONETS-M 20             
1 47227U 20091A   26189.98165834 -.00000084  00000+0 -67909-3 0  9991
2 47227  82.5048 288.8893 0022029 131.8403 228.4561 12.42894058253788
GONETS-M 21             
1 47228U 20091B   26189.95562894 -.00000129  00000+0 -10057-2 0  9997
2 47228  82.4972 287.5992 0015690 144.7148 215.4974 12.42887043253774
GONETS-M 22             
1 47229U 20091C   26189.92863294  .00000004  00000+0 -44832-4 0  9994
2 47229  82.5030 288.5247 0022922 127.4573 232.8597 12.42893570253722
CUBEL                   
1 47448U 21006AM  26189.64726333  .00006734  00000+0  16027-3 0  9994
2 47448  97.2318 240.0363 0008024 100.6709 259.5442 15.41915431303061
ARKTIKA-M 1             
1 47719U 21016A   26188.42887598 -.00000257  00000+0  00000+0 0  9997
2 47719  63.2524  54.6812 7295086 270.0380  14.5466  2.00614486 39194
STARLINK-2342           
1 47883U 21021Z   26190.00002315  .00266962  37194-4  87403-3 0  9999
2 47883  53.1524  38.0675 0006538 261.2416 146.4322 15.90128845  5960
GRUS-1B                 
1 47934U 21022C   26189.94150829  .00000962  00000+0  84468-4 0  9998
2 47934  97.5341  72.4154 0014517 242.1753 117.7999 14.98764372289152
UNISAT-7                
1 47945U 21022P   26189.98101475  .00010237  00000+0  24937-3 0  9997
2 47945  97.3866  95.1386 0008717  10.8577 349.2856 15.41078213293219
GLOBAL-9                
1 47971U 21023G   26189.23960419  .00014816  00000+0  28943-3 0  9994
2 47971  44.9804 132.1289 0002648 115.2236 244.8929 15.47400053298203
AII-BRAVO               
1 48270U 21034C   26189.65031246  .00002411  00000+0  18055-3 0  9993
2 48270  97.5592 244.0731 0005801 180.4016 179.7207 15.03633166282846
TYVAK-182A              
1 48271U 21034D   26189.78752735  .00003673  00000+0  25366-3 0  9995
2 48271  97.5706 248.3304 0004671 249.9335 110.1390 15.06364787283088
CSS (TIANHE)            
1 48274U 21035A   26190.25368005  .00001018  00000+0  17467-4 0  9991
2 48274  41.4687 187.8435 0002664 281.4115  78.6423 15.58018130296619
TYVAK-0130              
1 48606U 21041BF  26189.30685043  .00003683  00000+0  14620-3 0  9992
2 48606  52.9940 287.9847 0008589 233.3592 126.6616 15.27871019283616
HAIYANG-2D              
1 48621U 21043A   26189.98094495  .00000035  00000+0  10574-3 0  9992
2 48621  65.9979 250.4416 0011594 266.5284  93.4458 13.83373427259564
2021-050D               
1 48843U 21050D   26189.94540774  .00002510  00000+0  10792-3 0  9990
2 48843  97.3329 265.4872 0005703 172.2550 187.8776 15.23550989282275
