OBJECT_NAME,OBJECT_ID,EPOCH,MEAN_MOTION,ECCENTRICITY,INCLINATION,RA_OF_ASC_NODE,ARG_OF_PERICENTER,MEAN_ANOMALY,EPHEMERIS_TYPE,CLASSIFICATION_TYPE,NORAD_CAT_ID,ELEMENT_SET_NO,REV_AT_EPOCH,BSTAR,MEAN_MOTION_DOT,MEAN_MOTION_DDOT
NORBI,2020-068J,2026-07-08T23:49:46.789824,15.49420205,.00077173,97.8626,207.8938,162.9262,197.2249,0,U,46494,999,31958,.30143032E-3,.16479E-3,0
SALSAT,2020-068K,2026-07-08T22:11:41.845632,15.30112926,.00085482,97.8859,194.3174,216.5599,143.5058,0,U,46495,999,31868,.16857153E-3,.4831E-4,0
ICEYE-X6,2020-068M,2026-07-08T22:31:20.523072,15.04640193,.00077492,98.0976,184.6513,27.9689,332.1951,0,U,46497,999,31650,.18838662E-3,.2581E-4,0
NETSAT-4,2020-068U,2026-07-08T19:58:56.326368,15.44603658,.00040045,97.8611,199.8235,219.3798,140.7158,0,U,46504,999,31911,.27944707E-3,.12909E-3,0
NETSAT-3,2020-068V,2026-07-08T23:38:16.799424,15.43456567,.00031776,97.8661,198.1779,241.5566,118.5361,0,U,46505,999,31904,.29930822E-3,.13306E-3,0
NETSAT-1,2020-068W,2026-07-08T10:53:13.258752,15.35138736,.00025454,97.8754,191.6806,304.7328,55.3674,0,U,46506,999,31856,.22443752E-3,.7565E-4,0
NETSAT-2,2020-068X,2026-07-08T13:58:51.274560,15.46954649,.00014483,97.8621,199.5288,248.0784,112.0310,0,U,46507,999,31904,.34129335E-3,.17118E-3,0
TIANQI-6,2020-076D,2026-07-08T22:19:49.801728,15.07330324,.00102533,34.9994,275.0071,357.4643,2.6013,0,U,46810,999,31186,.13690577E-3,.2083E-4,0
KSM1-C,2020-081B,2026-07-08T17:43:43.177152,15.27110864,.00020497,36.8958,285.8566,19.1337,340.9489,0,U,46906,999,31246,.21203957E-3,.5676E-4,0
KSM1-D,2020-081C,2026-07-08T16:53:33.092736,15.25042507,.00026063,36.8975,295.4994,65.5163,294.5857,0,U,46907,999,31238,.18839457E-3,.4722E-4,0
KSM1-A,2020-081H,2026-07-08T16:30:15.298848,15.26309920,.00021187,36.8969,288.7292,141.4241,218.6660,0,U,46912,999,31246,.19776192E-3,.5158E-4,0
R2,2020-081J,2026-07-08T07:46:39.223776,15.25754250,.00069771,36.8977,291.0670,104.3696,255.7828,0,U,46913,999,31521,.19594734E-3,.5026E-4,0
KSM1-B,2020-081K,2026-07-08T17:02:52.628640,15.24827327,.00041106,36.9025,296.1178,99.0215,261.0999,0,U,46914,999,31547,.1928624E-3,.4805E-4,0
GONETS-M 20,2020-091A,2026-07-08T23:33:35.280576,12.42894058,.0022029,82.5048,288.8893,131.8403,228.4561,0,U,47227,999,25378,-.67909008E-3,-.84E-6,0
GONETS-M 21,2020-091B,2026-07-08T22:56:06.340416,12.42887043,.00156902,82.4972,287.5992,144.7148,215.4974,0,U,47228,999,25377,-.10056614E-2,-.129E-5,0
GONETS-M 22,2020-091C,2026-07-08T22:17:13.886016,12.42893570,.00229225,82.5030,288.5247,127.4573,232.8597,0,U,47229,999,25372,-.44831577E-4,.4E-7,0
CUBEL,2021-006AM,2026-07-08T15:32:03.551712,15.41915431,.00080247,97.2318,240.0363,100.6709,259.5442,0,U,47448,999,30306,.1602652E-3,.6734E-4,0
ARKTIKA-M 1,2021-016A,2026-07-07T10:17:34.884672,2.00614486,.72950864,63.2524,54.6812,270.0380,14.5466,0,U,47719,999,3919,0,-.257E-5,0
STARLINK-2342,2021-021Z,2026-07-09T00:00:02.000160,15.90128845,.00065384,53.1524,38.0675,261.2416,146.4322,0,U,47883,999,596,.87403356E-3,.266962E-2,.37194424E-4
GRUS-1B,2021-022C,2026-07-08T22:35:46.316256,14.98764372,.00145174,97.5341,72.4154,242.1753,117.7999,0,U,47934,999,28915,.84467859E-4,.962E-5,0
UNISAT-7,2021-022P,2026-07-08T23:32:39.674400,15.41078213,.00087177,97.3866,95.1386,10.8577,349.2856,0,U,47945,999,29321,.2493651E-3,.10237E-3,0
GLOBAL-9,2021-023G,2026-07-08T05:45:01.802016,15.47400053,.00026485,44.9804,132.1289,115.2236,244.8929,0,U,47971,999,29820,.28943457E-3,.14816E-3,0
AII-BRAVO,2021-034C,2026-07-08T15:36:26.996544,15.03633166,.00058011,97.5592,244.0731,180.4016,179.7207,0,U,48270,999,28284,.18054627E-3,.2411E-4,0
TYVAK-182A,2021-034D,2026-07-08T18:54:02.363040,15.06364787,.00046718,97.5706,248.3304,249.9335,110.1390,0,U,48271,999,28308,.2536598E-3,.3673E-4,0
CSS (TIANHE),2021-035A,2026-07-09T06:05:17.956320,15.58018130,.0002664,41.4687,187.8435,281.4115,78.6423,0,U,48274,999,29661,.17467E-4,.1018E-4,0
TYVAK-0130,2021-041BF,2026-07-08T07:21:51.877152,15.27871019,.00085894,52.9940,287.9847,233.3592,126.6616,0,U,48606,999,28361,.14620344E-3,.3683E-4,0
HAIYANG-2D,2021-043A,2026-07-08T23:32:33.643680,13.83373427,.00115944,65.9979,250.4416,266.5284,93.4458,0,U,48621,999,25956,.10573592E-3,.35E-6,0
2021-050D,2021-050D,2026-07-08T22:41:23.228736,15.23550989,.00057033,97.3329,265.4872,172.2550,187.8776,0,U,48843,999,28227,.10791505E-3,.251E-4,0
